ORBCOMM FM33 [-]        
1 25983U 99065D   23269.66810108  .00001778  00000+0  64473-3 0  9997
2 25983  45.0286 103.5749 0008968 137.3387 332.7409 14.36750527245432
ORBCOMM FM36 [-]        
1 25984U 99065E   23269.21027041  .00001720  00000+0  65231-3 0  9995
2 25984  45.0398 187.3262 0004619   5.0725 355.0169 14.34634944243850
ORBCOMM FM35 [+]        
1 25985U 99065F   23269.82383185  .00001666  00000+0  63696-3 0  9999
2 25985  45.0397 186.4784 0001741 114.2064 245.8965 14.34346257244343
ORBCOMM FM34 [-]        
1 25986U 99065G   23269.85691335  .00001841  00000+0  69936-3 0  9990
2 25986  45.0392 186.7899 0003601  48.7329 311.3828 14.34291278244463
ORBCOMM FM38 [-]        
1 33060U 08031A   23269.83563438  .00004012  00000+0  60494-3 0  9998
2 33060  48.4409  61.2747 0006172 226.1205 133.9199 14.76054318821616
ORBCOMM FM41 [-]        
1 33061U 08031B   23269.59284076  .00003517  00000+0  53696-3 0  9995
2 33061  48.4443  68.5389 0005234 213.2525 260.6092 14.75818848821094
ORBCOMM FM29 [-]        
1 33062U 08031C   23269.84237678  .00003912  00000+0  59541-3 0  9994
2 33062  48.4393  75.3318 0007154 211.1828 290.7443 14.75696254821047
ORBCOMM FM39 [-]        
1 33063U 08031D   23269.64169507  .00002801  00000+0  44332-3 0  9996
2 33063  48.4405  95.2391 0007851 187.6210 172.4585 14.74861571820733
